#aV2012  3 27  0  0  0.00000000     288 DD+AD WGS84 FIT  NGA
## 1681 172800.00000000   300.00000000 56013 0.0000000000000
+   31     1  2  3  4  5  6  7  8  9 10 11 12 13 14 15 16 17
+         18 19 20 21 22 23 25 26 27 28 29 30 31 32  0  0  0
+          0  0  0  0  0  0  0  0  0  0  0  0  0  0  0  0  0
+          0  0  0  0  0  0  0  0  0  0  0  0  0  0  0  0  0
+          0  0  0  0  0  0  0  0  0  0  0  0  0  0  0  0  0
++         2  2  2  2  2  2  2  2  2  2  2  2  2  2  2  2  2
++         2  2  2  2  2  2  2  2  2  2  2  2  2  2  2  0  0
++         0  0  0  0  0  0  0  0  0  0  0  0  0  0  0  0  0
++         0  0  0  0  0  0  0  0  0  0  0  0  0  0  0  0  0
++         0  0  0  0  0  0  0  0  0  0  0  0  0  0  0  0  0
%c cc cc ccc ccc cccc cccc cccc cccc ccccc ccccc ccccc ccccc
%c cc cc ccc ccc cccc cccc cccc cccc ccccc ccccc ccccc ccccc
%f  0.0000000  0.000000000  0.00000000000  0.000000000000000
%f  0.0000000  0.000000000  0.00000000000  0.000000000000000
%i    0    0    0    0      0      0      0      0         0
%i    0    0    0    0      0      0      0      0         0
/*      NGA, ST. LOUIS,MO.                                  
/*   EPHEMERIS COMPUTED FROM  1 DAYS OF DATA
/*   EPOCHA SMOOTHER  
/* CCCCCCCCCCCCCCCCCCCCCCCCCCCCCCCCCCCCCCCCCCCCCCCCCCCCCCCCC
*  2012  3 27  5 35  0.00000000                                                 
P  1  13553.592055 -11119.834399  19934.776313    239.523204                    
V  1   2047.580247  25287.550998  12728.500525      0.060783                    
P  2 -13424.053197 -15152.389192 -17332.733442    384.371681                    
V  2    735.314071 -22166.611251  18181.562710      0.014435                    
P  3  24466.778594  10639.451257  -1801.665665     27.928867                    
V  3  -2857.589275   2664.619881 -30779.952362      0.051808                    
P  4  -7982.857639 -23239.341168  -9902.087567    135.143706                    
V  4   2946.387110 -12469.964393  27895.379735      0.114372                    
P  5 -19442.304497  -2966.173804 -17931.928823   -298.285956                    
V  5  18402.302062 -13399.806708 -17637.086126     -0.041965                    
P  6  22383.947770  13900.538743  -4284.626147     31.810831                    
V  6  -6428.091489    596.616543 -30414.642054     -0.003274                    
P  7   7220.927752 -22819.047863 -11221.018528     67.629464                    
V  7   2431.806651  14307.028520 -27717.631907      0.030507                    
P  8    817.583114 -26196.783802   1401.014546      0.908312                    
V  8   2209.331284  -1582.272132 -32886.046465      0.001208                    
P  9 -13762.052257   6753.677745  21143.753387    147.383771                    
V  9  -1740.856616 -28036.422008   7598.674278      0.024111                    
P 10  -3123.348451 -15918.031203 -21223.141208    -33.522567                    
V 10  23222.178034 -12771.831897   6629.753635     -0.011803                    
P 11  16038.814435  -4201.260930  20379.282856   -245.574319                    
V 11   8033.889740  25854.901658   -650.954690     -0.037540                    
P 12 -23921.972937  10081.756216   5107.798246     60.117553                    
V 12   4420.688290  -5314.888788  31398.553592      0.021175                    
P 13   8201.723744 -12230.124952 -22249.736238    217.087996                    
V 13  23236.012031  15306.004114     67.784762     -0.022541                    
P 14  10617.571858  18942.137698  15562.016821    198.325893                    
V 14 -17192.771396  -9002.743534  22810.250356      0.011462                    
P 15 -22609.863013   -113.958966  14096.134539    -91.721233                    
V 15 -14850.097645 -10210.257470 -23675.568746      0.002463                    
P 16  18890.142891   3563.317912 -18452.707569   -229.006348                    
V 16 -19777.125340  12351.770588 -17541.334568     -0.014968                    
P 17  -8398.368978 -18730.597600  17156.488854    139.969304                    
V 17  19221.759192   9431.271155  19673.813838     -0.024633                    
P 18 -12828.361574  19208.370539  13133.871167    188.091124                    
V 18 -15605.722292   5767.795070 -24693.600540      0.018018                    
P 19  23202.975014   4933.949985  12295.265780   -249.548152                    
V 19  11834.457657  10271.295951 -25996.583699     -0.037804                    
P 20  22354.909170 -14216.293010   1126.793640     63.277972                    
V 20    807.398888   4080.853239  31073.454800     -0.000865                    
P 21  -4172.391904  24979.314738  -6440.783059   -213.307480                    
V 21  -4355.471132  -8861.045208 -29981.970128     -0.024780                    
P 22   1900.344733  16850.252649  20595.378573    143.130455                    
V 22 -22755.307355  12438.103572  -8267.164712      0.000395                    
P 23  18148.658749  -5006.534589 -18849.100021    220.501510                    
V 23  20278.159242  12650.806287  15779.611064     -0.035524                    
P 25 -18183.497222  17755.538957  -7644.775064     32.516162                    
V 25  -9500.523683   3090.218107  29931.295982      0.002752                    
P 26 -23006.761251 -13433.250645   1972.979339   -215.385956                    
V 26  -1721.234379  -3275.890927 -31877.903242     -0.553347                    
P 27 -15123.086165  -1743.031670  22421.603017    371.019470                    
V 27  -1888.219309 -26806.428018  -2994.640883      0.038621                    
P 28   1617.564014 -16966.715484  20865.848655    126.887003                    
V 28  22482.895320 -11545.421795 -11654.400008      0.039520                    
P 29 -10460.616041  11257.733946 -21589.212482    297.597639                    
V 29 -23519.235878 -14403.932990   3914.840410      0.035716                    
P 30  11009.367824  10925.973487 -21915.792083   -101.973672                    
V 30 -21280.608895  16607.225682  -2442.701399     -0.180169                    
P 31   7315.866782  23067.444225 -10461.411607    224.216473                    
V 31  -1960.143393  13657.280484  28454.247955      0.044032                    
P 32  24370.737892  -5524.832534   8483.139257   -425.365013                    
V 32  -8055.969170   7623.582624  29310.419857     -0.046682                    
EOF
